0 FENGYUN 1C DEB
1 30118U 99025RX  13280.63333770  .00000399  00000-0  27361-3 0   640
2 30118 099.1008 287.0507 0085426 221.2115 261.1369 14.03759625344900
0 FENGYUN 1C DEB
1 30118U 99025RX  13282.84304752  .00000483  00000-0  32527-3 0   658
2 30118 099.1010 289.2629 0085482 215.0615 268.0174 14.03761213345211
0 FENGYUN 1C DEB
1 30118U 99025RX  13284.96933652  .00000451  00000-0  30525-3 0   662
2 30118 099.1009 291.3915 0085544 209.1366 213.3425 14.03763661345511
0 FENGYUN 1C DEB
1 30118U 99025RX  13287.48410131  .00000313  00000-0  22042-3 0   677
2 30118 099.1008 293.9090 0085615 202.1339 321.8673 14.03767206345861
0 FENGYUN 1C DEB
1 30118U 99025RX  13289.54178778  .00000159  00000-0  12531-3 0   685
2 30118 099.1010 295.9688 0085654 196.3732 280.5699 14.03770235346151
0 FENGYUN 1C DEB
1 30118U 99025RX  13291.82432991  .00000022  00000-0  41355-4 0   696
2 30118 099.1012 298.2536 0085719 189.9871 295.6211 14.03772444346471
0 FENGYUN 1C DEB
1 30118U 99025RX  13293.88993179 -.00000076  00000-0 -19050-4 0   704
2 30118 099.1012 300.3214 0085804 184.2399 294.3260 14.03773768346769
